#dP2022  2 13  0  0  0.00000000      97 __u+U IGS14 FIT  IAC
## 2197      0.00000000   900.00000000 59623 0.0000000000000
+  125   C01C02C03C04C05C06C07C08C09C10C11C12C13C14C16C19C20
+        C21C22C23C24C25C26C27C28C29C30C32C33C34C35C36C37C38
+        C39C40C41C42C43C44C45C46C59C60E01E02E03E04E05E07E08
+        E09E10E11E12E13E14E15E18E21E24E25E26E27E30E31E33E34
+        E36G01G02G03G04G05G06G07G08G09G10G11G12G13G14G15G16
+        G17G18G19G20G21G22G23G24G25G26G27G28G29G30G31G32J01
+        J02J03J07R01R02R03R04R05R07R08R09R11R12R13R14R15R17
+        R18R19R20R21R22R24  0  0  0  0  0  0  0  0  0  0  0
++        16 15 15 15 15  9  9  9  8  9  8  8  8  8  9 11  7
++         6  7  7  7  7  7  7  7  7  7  7  7  7  7  7  7  7
++         7  7  7  7  7  7  7  7 16 15  4  4  4  4  4  4  4
++         4  5  4  4  4  4  4  4  4  4  4  4  4  4  5  5  5
++         4  3  3  3  3  4  3  4  3  3  3  3  3  4  3  4  4
++         3  3  3  4  3  3  3  3  3  3  4  4  4  3  3  3  8
++         8  8 15  6  6  5  5  5  5  5  6  7  5  6  5  6  5
++         6  7  7  5  7  5  0  0  0  0  0  0  0  0  0  0  0
%c M  cc GPS ccc cccc cccc cccc cccc ccccc ccccc ccccc ccccc
%c cc cc ccc ccc cccc cccc cccc cccc ccccc ccccc ccccc ccccc
%f  1.2500000  1.025000000  0.00000000000  0.000000000000000
%f  0.0000000  0.000000000  0.00000000000  0.000000000000000
%i    0    0    0    0      0      0      0      0         0
%i    0    0    0    0      0      0      0      0         0
/* INFORMATION & ANALYSIS CENTER (IAC)            FINAL DATA
/* S/V CLOCKS ARE ALIGNED TO GNSS TIME                      
/* G:C1WC2W R:C1PC2P E:C1XC5X C:C2IC6I J:C1CC2S             
/* PCV:IGS14_2196 OL/AL:FES2004  NONE     YN ORB:CoN CLK:CoN
*  2022 02 14  0  0  0.00000000
PC01 -34366.803623  24416.715065   -271.936616   -131.202448
PC02   4452.260568  41963.464943    756.858632    318.816365
PC03 -14730.677411  39547.958247   -137.234212    804.082362
PC04 -39643.740854  14341.100286   -661.760176   -277.765404
PC05  21926.563895  36034.480481   1190.141276   -486.899385
PC06  -3795.395221  26006.129598  33002.077491     46.189569
PC07 -18115.205168  32012.603185 -20720.858369    -50.130858
PC08  -6974.933567  40222.320063 -10209.335335    132.417963
PC09   5928.028855  30173.201431  29378.843791   -520.674413
PC10 -11260.167563  31985.166330 -25075.318285    139.838934
PC11   4116.859273  18695.889354 -20225.764187   -209.794963
PC12 -14005.578362   8575.488610 -22522.808248    680.841711
PC13  -1904.093417  41879.029288  -2809.102906   -117.428798
PC14  -6463.962830  18810.628955  19618.643473    455.591418
PC16  -4505.164666  25125.279608  33743.383570     81.614398
PC19  -4168.224550 -15521.713090 -22784.831273    897.790423
PC20  14333.714435 -18975.482119 -14566.108596   -822.660605
PC21 -25398.205181  11210.272082  -2911.367512   -948.380195
PC22 -21014.241607  -2970.678989 -18128.676004   -957.883195
PC23  14375.693301  12023.772534 -20677.235833   -960.811997
PC24  -8129.107716  24785.025308   9858.564433   -943.829990
PC25   5707.324579  25929.106039  -8565.366219   -779.818762
PC26 -15195.607480  10403.244506  20941.873533    779.516641
PC27  20936.564418  -1566.087573  18376.290291    677.005851
PC28  24457.739454  12985.023061   3468.546558     32.429295
PC29 -14237.773228 -19609.543413  13828.491821    514.808195
PC30   5395.098799 -15169.969639  22787.134330    493.289324
PC32  25321.190683 -11333.873141   3008.980825   -965.359532
PC33   4165.456691  15589.348650  22776.332686   -957.210033
PC34  -4393.864571  15730.334500 -22637.628198   -469.600864
PC35 -24736.427298 -12579.629890  -2735.949714    138.555566
PC36  -4787.776780 -26272.738300   8129.658278   -903.117272
PC37  15649.161450  -8893.123572 -21323.280141   -963.182519
PC38 -10741.111603  37503.922379 -15756.395307    211.234661
PC39 -10659.682277  21640.893749  34589.187153     34.778114
PC40 -24727.717274  27078.364335 -20958.386605    244.186994
PC41  20748.703546   3316.818064  18418.466255   -937.017800
PC42 -15136.772483  18954.093324  13856.258219   -931.141928
PC43  13562.214361  19787.202324 -14286.098360   -941.894661
PC44 -21010.401241   2270.021634 -18213.665038    564.000013
PC45 -14337.625248 -11798.147503  20834.721379    679.868057
PC46   7247.879305 -25535.442242  -8685.882529   -167.241697
PC59 -32298.591702  27092.543831    612.952218     -0.825205
PC60   7299.974785  41514.058361  -1332.894095     -0.298405
PE01  12532.675523 -26438.838504   4527.490733   -578.593067
PE02 -12405.504934  26448.812847  -4694.049296    280.092798
PE03  -9287.535884  16080.695927  23049.388729   -527.480446
PE04 -12996.806839 -15490.299853 -21612.194659   -964.119775
PE05 -26526.894418   7229.332027  10964.522241   -209.298290
PE07  28097.506815   5714.306313   7343.836829   -638.744340
PE08  13496.777105  15192.398513  21518.675452   5855.750875
PE09 -28212.589706  -5416.550378  -7156.582180   5361.136047
PE10 -18200.672391 -22034.004487  -7707.415171   -495.309307
PE11 -20172.151243 -13891.942608 -16609.324594   4458.226944
PE12 -13301.108172 -26358.413147   1954.458236   4760.710368
PE13  20151.886039  14488.718912  16146.788629    426.516898
PE14 -29922.750636   1157.310991  -9089.255676  -1744.860320
PE15  13315.548518  26359.137367  -2080.708872    763.446248
PE18  24510.760834   5919.022916   -164.040983  -1795.577453
PE21  20543.747524 -16968.025183 -12910.431857   -717.021915
PE24 -16656.907398  -4259.527380  24074.260910  -1389.222326
PE25 -20574.442316  16745.601387  13119.143143   -563.542866
PE26  14731.448151  -6910.605207  24736.023320   -802.590128
PE27  17270.212646   2810.584188 -23879.517331   -231.765469
PE30   2932.849855  21513.784079 -20121.144961   -272.048022
PE31  -3850.445594 -20799.030021  20713.078587   -492.153241
PE33   1369.338822 -22631.091066  19033.339622   -459.456164
PE34  -1148.848105  22763.730992 -18883.436568   -501.661331
PE36 -15101.386986   5827.692283 -24772.056331   -331.961578
PG01  15659.715987   1997.749479  21143.721632    432.151949
PG02 -14908.307195 -20677.272524  -6552.071881   -650.806715
PG03  20050.065790  -8586.264619  14978.535442   -120.219353
PG04  25667.422235    -48.239603  -6988.062690   -189.709725
PG05 -13874.265707  -6881.093852 -21749.330304    -71.338267
PG06  -4564.119051 -25158.746153   7113.358097    200.722494
PG07   9068.207074 -15080.766718 -19362.639651    310.083807
PG08  25727.455319   6215.779281  -3904.013645    -56.077396
PG09  19252.492599  -8865.354152 -16095.423817   -354.279426
PG10  -9570.604639  22633.480162   9832.641640   -319.739494
PG11 -12536.769189 -22262.559677  -7287.296299    -89.830642
PG12 -19908.396247   4672.209435  16609.532544   -170.623106
PG13 -20875.064461 -13339.171349  -9949.621585    261.280904
PG14  11077.189167 -22353.875764   9006.322555    -83.543574
PG15 -26273.633266  -3614.280142  -3776.922260    -84.033394
PG16  10233.484738  11164.484569 -22071.962010   -469.086511
PG17   4720.821947 -14287.119100  22325.410667    574.752049
PG18  -8754.985249  15445.201369 -19723.314844    240.739764
PG19  -4433.120476 -15646.526850  20779.174552    118.581701
PG20  -7315.040393 -16172.091884 -19832.042481    516.717059
PG21  18342.085900  11254.108394  16641.889393    157.987230
PG22   7816.368976  16230.972461  19975.385321    213.186636
PG23 -16763.970387  20494.773133  -1310.191554      1.588808
PG24 -17951.317204  -5715.611230  18580.515851    274.644390
PG25 -19464.441197  16179.717477   7274.175505    285.147719
PG26    688.948151  20311.432940 -17020.284944    183.001972
PG27  19352.710538  12480.098470 -13771.272170    117.878288
PG28   4617.456286 -20880.163471  16417.361282    401.053822
PG29 -21583.004456   5048.566402 -14721.818169   -479.871577
PG30   2890.561081 -22213.438882 -14008.818859   -513.205206
PG31   5832.789765  25268.243605   4301.997645   -164.598738
PG32    712.374918  15511.578935  21691.385673    -67.239059
PJ01 -32213.363388  24294.196955  17333.348970    248.482736
PJ02 -32898.880911  25103.981369  13096.437404     -1.337375
PJ03 -23843.095733  18031.132884 -25120.097771     -0.521400
PJ07 -25383.924338  33662.062962     42.285170     -0.003339
PR01   3938.299999 -12433.961162 -21917.268584      7.079313
PR02 -16073.914293  -4559.012039 -19206.428892    509.565437
PR03 -24463.836791   5269.723087  -4741.176466     51.431630
PR04 -19082.004105  11803.264077  12151.318358    127.573393
PR05  -3182.060657  11881.767172  22353.972090     87.659128
PR07  24577.672225  -5570.448709   4149.946337     31.611461
PR08  19032.929702 -11900.036490 -12085.931491    -63.557455
PR09   7443.742791  13594.413733 -20268.782160     39.338278
PR11   9851.222877 -20475.555905 -11576.867125     45.612611
PR12   2038.466345 -24520.587253   6793.714699     17.176933
PR13  -6691.911157 -14550.606592  19833.841073    -18.251195
PR14 -11983.242941   5165.504553  21924.209095     74.319806
PR15  -9959.580026  20802.814191  10904.408997     98.206761
PR17 -18110.936473  -6447.069454 -16771.329973    501.371059
PR18  -7469.270685   7292.639565 -23254.162856    107.165369
PR19   5643.420667  16977.956460 -18177.878614   -178.096113
PR20  18101.127460  18008.884673     72.021844    -64.891833
PR21  17442.407189   5392.520339  17808.696690   -277.841263
PR22   6859.231054  -7806.319903  23285.168262   -164.546376
PR24 -18688.992673 -17351.380255   -723.515781     80.088872
EOF
